{"type": "FeatureCollection", "features": [ {"type": "Feature", "properties": {"norad_id": 30596, "name": "FENGYUN 1C DEB", "group": "fengyun-1c-debris", "lat": 47.46677865049485, "lon": -27.26000033577498, "alt_km": 834.495897787081, "timestamp": "2025-12-10T05:46:14.099447+00:00", "meta": {"OBJECT_NAME": "FENGYUN 1C DEB", "OBJECT_ID": "1999-025AMB", "EPOCH": "2025-12-09T20:04:34.081248", "MEAN_MOTION": 14.34347889, "ECCENTRICITY": 0.0247395, "INCLINATION": 98.4132, "RA_OF_ASC_NODE": 341.6301, "ARG_OF_PERICENTER": 297.7746, "MEAN_ANOMALY": 183.2162, "EPHEMERIS_TYPE": 0, "CLASSIFICATION_TYPE": "U", "NORAD_CAT_ID": 30596, "ELEMENT_SET_NO": 999, "REV_AT_EPOCH": 98519, "BSTAR": 0.00072829, "MEAN_MOTION_DOT": 2.837e-05, "MEAN_MOTION_DDOT": 0}, "tle": {"line1": "1 30596U 99025AMB 25343.83650557  .00002837  00000+0  72829-3 0  9994", "line2": "2 30596  98.4132 341.6301 0247395 297.7746 183.2162 14.34347889985198"}}, "geometry": {"type": "Point", "coordinates": [-27.26000033577498, 47.46677865049485]}}, {"type": "Feature", "properties": {"norad_id": 30597, "name": "FENGYUN 1C DEB", "group": "fengyun-1c-debris", "lat": 57.42723563187074, "lon": 114.64033874367888, "alt_km": 566.7610394348458, "timestamp": "2025-12-10T05:46:14.099457+00:00", "meta": {"OBJECT_NAME": "FENGYUN 1C DEB", "OBJECT_ID": "1999-025AMC", "EPOCH": "2025-12-08T06:32:45.550752", "MEAN_MOTION": 14.91762245, "ECCENTRICITY": 0.00445307, "INCLINATION": 98.9449, "RA_OF_ASC_NODE": 278.1365, "ARG_OF_PERICENTER": 178.9859, "MEAN_ANOMALY": 181.1454, "EPHEMERIS_TYPE": 0, "CLASSIFICATION_TYPE": "U", "NORAD_CAT_ID": 30597, "ELEMENT_SET_NO": 999, "REV_AT_EPOCH": 98470, "BSTAR": 0.0055206444, "MEAN_MOTION_DOT": 0.00057057, "MEAN_MOTION_DDOT": 0}, "tle": {"line1": "1 30597U 99025AMC 25342.27274943  .00057057  00000+0  55206-2 0  9996", "line2": "2 30597  98.9449 278.1365 0044530 178.9859 181.1454 14.91762245984707"}}, "geometry": {"type": "Point", "coordinates": [114.64033874367888, 57.42723563187074]}}, {"type": "Feature", "properties": {"norad_id": 30599, "name": "FENGYUN 1C DEB", "group": "fengyun-1c-debris", "lat": 37.6718874576017, "lon": -177.35746689458225, "alt_km": 1010.2654149064847, "timestamp": "2025-12-10T05:46:14.099466+00:00", "meta": {"OBJECT_NAME": "FENGYUN 1C DEB", "OBJECT_ID": "1999-025AME", "EPOCH": "2025-12-09T07:07:21.531072", "MEAN_MOTION": 14.19664314, "ECCENTRICITY": 0.0302608, "INCLINATION": 98.6035, "RA_OF_ASC_NODE": 355.0112, "ARG_OF_PERICENTER": 354.7362, "MEAN_ANOMALY": 5.0655, "EPHEMERIS_TYPE": 0, "CLASSIFICATION_TYPE": "U", "NORAD_CAT_ID": 30599, "ELEMENT_SET_NO": 999, "REV_AT_EPOCH": 97118, "BSTAR": 0.0011991, "MEAN_MOTION_DOT": 3.964e-05, "MEAN_MOTION_DDOT": 0}, "tle": {"line1": "1 30599U 99025AME 25343.29677698  .00003964  00000+0  11991-2 0  9996", "line2": "2 30599  98.6035 355.0112 0302608 354.7362   5.0655 14.19664314971181"}}, "geometry": {"type": "Point", "coordinates": [-177.35746689458225, 37.6718874576017]}}, {"type": "Feature", "properties": {"norad_id": 30600, "name": "FENGYUN 1C DEB", "group": "fengyun-1c-debris", "lat": -2.6939174635265704, "lon": -70.44058694605802, "alt_km": 916.6297312430643, "timestamp": "2025-12-10T05:46:14.099476+00:00", "meta": {"OBJECT_NAME": "FENGYUN 1C DEB", "OBJECT_ID": "1999-025AMF", "EPOCH": "2025-12-08T19:39:31.517856", "MEAN_MOTION": 14.07373455, "ECCENTRICITY": 0.03284157, "INCLINATION": 98.3883, "RA_OF_ASC_NODE": 287.8391, "ARG_OF_PERICENTER": 258.6579, "MEAN_ANOMALY": 97.7531, "EPHEMERIS_TYPE": 0, "CLASSIFICATION_TYPE": "U", "NORAD_CAT_ID": 30600, "ELEMENT_SET_NO": 999, "REV_AT_EPOCH": 94377, "BSTAR": 0.0069172785, "MEAN_MOTION_DOT": 0.00019045, "MEAN_MOTION_DDOT": 0}, "tle": {"line1": "1 30600U 99025AMF 25342.81911479  .00019045  00000+0  69173-2 0  9996", "line2": "2 30600  98.3883 287.8391 0328415 258.6579  97.7531 14.07373455943774"}}, "geometry": {"type": "Point", "coordinates": [-70.44058694605802, -2.6939174635265704]}}, {"type": "Feature", "properties": {"norad_id": 30602, "name": "FENGYUN 1C DEB", "group": "fengyun-1c-debris", "lat": -25.45752588908872, "lon": -97.89296159346183, "alt_km": 607.7939088956182, "timestamp": "2025-12-10T05:46:14.099486+00:00", "meta": {"OBJECT_NAME": "FENGYUN 1C DEB", "OBJECT_ID": "1999-025AMH", "EPOCH": "2025-12-09T17:08:01.029984", "MEAN_MOTION": 14.90500564, "ECCENTRICITY": 0.0009917, "INCLINATION": 99.0327, "RA_OF_ASC_NODE": 257.1623, "ARG_OF_PERICENTER": 128.3484, "MEAN_ANOMALY": 262.286, "EPHEMERIS_TYPE": 0, "CLASSIFICATION_TYPE": "U", "NORAD_CAT_ID": 30602, "ELEMENT_SET_NO": 999, "REV_AT_EPOCH": 97760, "BSTAR": 0.010572, "MEAN_MOTION_DOT": 0.00104787, "MEAN_MOTION_DDOT": 0}, "tle": {"line1": "1 30602U 99025AMH 25343.71390081  .00104787  00000+0  10572-1 0  9994", "line2": "2 30602  99.0327 257.1623 0009917 128.3484 262.2860 14.90500564977604"}}, "geometry": {"type": "Point", "coordinates": [-97.89296159346183, -25.45752588908872]}}, {"type": "Feature", "properties": {"norad_id": 30603, "name": "FENGYUN 1C DEB", "group": "fengyun-1c-debris", "lat": 26.19946972784665, "lon": -168.4105096938171, "alt_km": 876.9571458916607, "timestamp": "2025-12-10T05:46:14.099496+00:00", "meta": {"OBJECT_NAME": "FENGYUN 1C DEB", "OBJECT_ID": "1999-025AMJ", "EPOCH": "2025-12-09T01:23:06.463680", "MEAN_MOTION": 13.84103301, "ECCENTRICITY": 0.01832315, "INCLINATION": 98.4093, "RA_OF_ASC_NODE": 6.3559, "ARG_OF_PERICENTER": 215.4125, "MEAN_ANOMALY": 169.7324, "EPHEMERIS_TYPE": 0, "CLASSIFICATION_TYPE": "U", "NORAD_CAT_ID": 30603, "ELEMENT_SET_NO": 999, "REV_AT_EPOCH": 94825, "BSTAR": 0.0016776097, "MEAN_MOTION_DOT": 2.089e-05, "MEAN_MOTION_DDOT": 0}, "tle": {"line1": "1 30603U 99025AMJ 25343.05771370  .00002089  00000+0  16776-2 0  9991", "line2": "2 30603  98.4093   6.3559 0183231 215.4125 169.7324 13.84103301948257"}}, "geometry": {"type": "Point", "coordinates": [-168.4105096938171, 26.19946972784665]}}, {"type": "Feature", "properties": {"norad_id": 30604, "name": "FENGYUN 1C DEB", "group": "fengyun-1c-debris", "lat": -6.356154441229192, "lon": -161.75574790522865, "alt_km": 966.3996019100823, "timestamp": "2025-12-10T05:46:14.099506+00:00", "meta": {"OBJECT_NAME": "FENGYUN 1C DEB", "OBJECT_ID": "1999-025AMK", "EPOCH": "2025-12-09T08:43:20.989632", "MEAN_MOTION": 14.23602126, "ECCENTRICITY": 0.02098984, "INCLINATION": 98.4027, "RA_OF_ASC_NODE": 18.3492, "ARG_OF_PERICENTER": 16.7417, "MEAN_ANOMALY": 357.1791, "EPHEMERIS_TYPE": 0, "CLASSIFICATION_TYPE": "U", "NORAD_CAT_ID": 30604, "ELEMENT_SET_NO": 999, "REV_AT_EPOCH": 97791, "BSTAR": 0.00050219991, "MEAN_MOTION_DOT": 1.391e-05, "MEAN_MOTION_DDOT": 0}, "tle": {"line1": "1 30604U 99025AMK 25343.36343738  .00001391  00000+0  50220-3 0  9997", "line2": "2 30604  98.4027  18.3492 0209898  16.7417 357.1791 14.23602126977917"}}, "geometry": {"type": "Point", "coordinates": [-161.75574790522865, -6.356154441229192]}}, {"type": "Feature", "properties": {"norad_id": 30606, "name": "FENGYUN 1C DEB", "group": "fengyun-1c-debris", "lat": -52.89956495801914, "lon": 163.61550376057323, "alt_km": 701.139193831692, "timestamp": "2025-12-10T05:46:14.099516+00:00", "meta": {"OBJECT_NAME": "FENGYUN 1C DEB", "OBJECT_ID": "1999-025AMM", "EPOCH": "2025-12-09T17:27:54.713376", "MEAN_MOTION": 14.57599794, "ECCENTRICITY": 0.0214134, "INCLINATION": 98.0962, "RA_OF_ASC_NODE": 353.9649, "ARG_OF_PERICENTER": 146.5193, "MEAN_ANOMALY": 275.7665, "EPHEMERIS_TYPE": 0, "CLASSIFICATION_TYPE": "U", "NORAD_CAT_ID": 30606, "ELEMENT_SET_NO": 999, "REV_AT_EPOCH": 99198, "BSTAR": 0.00079664, "MEAN_MOTION_DOT": 4.926e-05, "MEAN_MOTION_DDOT": 0}, "tle": {"line1": "1 30606U 99025AMM 25343.72771659  .00004926  00000+0  79664-3 0  9996", "line2": "2 30606  98.0962 353.9649 0214134 146.5193 275.7665 14.57599794991988"}}, "geometry": {"type": "Point", "coordinates": [163.61550376057323, -52.89956495801914]}}, {"type": "Feature", "properties": {"norad_id": 30608, "name": "FENGYUN 1C DEB", "group": "fengyun-1c-debris", "lat": -39.99731219556243, "lon": -140.4812074969924, "alt_km": 793.9296306322121, "timestamp": "2025-12-10T05:46:14.099526+00:00", "meta": {"OBJECT_NAME": "FENGYUN 1C DEB", "OBJECT_ID": "1999-025AMP", "EPOCH": "2025-12-09T16:01:46.407072", "MEAN_MOTION": 14.28450083, "ECCENTRICITY": 0.0015896, "INCLINATION": 98.71, "RA_OF_ASC_NODE": 46.3374, "ARG_OF_PERICENTER": 187.9232, "MEAN_ANOMALY": 329.8512, "EPHEMERIS_TYPE": 0, "CLASSIFICATION_TYPE": "U", "NORAD_CAT_ID": 30608, "ELEMENT_SET_NO": 999, "REV_AT_EPOCH": 97395, "BSTAR": 0.0018633, "MEAN_MOTION_DOT": 4.627e-05, "MEAN_MOTION_DDOT": 0}, "tle": {"line1": "1 30608U 99025AMP 25343.66789823  .00004627  00000+0  18633-2 0  9999", "line2": "2 30608  98.7100  46.3374 0015896 187.9232 329.8512 14.28450083973950"}}, "geometry": {"type": "Point", "coordinates": [-140.4812074969924, -39.99731219556243]}}, {"type": "Feature", "properties": {"norad_id": 30609, "name": "FENGYUN 1C DEB", "group": "fengyun-1c-debris", "lat": -79.80305958533634, "lon": 24.029293493786877, "alt_km": 940.7021391006074, "timestamp": "2025-12-10T05:46:14.099535+00:00", "meta": {"OBJECT_NAME": "FENGYUN 1C DEB", "OBJECT_ID": "1999-025AMQ", "EPOCH": "2025-12-06T17:08:31.037568", "MEAN_MOTION": 14.11134801, "ECCENTRICITY": 0.01189523, "INCLINATION": 98.5675, "RA_OF_ASC_NODE": 257.6035, "ARG_OF_PERICENTER": 69.9172, "MEAN_ANOMALY": 291.4756, "EPHEMERIS_TYPE": 0, "CLASSIFICATION_TYPE": "U", "NORAD_CAT_ID": 30609, "ELEMENT_SET_NO": 999, "REV_AT_EPOCH": 95643, "BSTAR": 0.0036904109, "MEAN_MOTION_DOT": 7.069e-05, "MEAN_MOTION_DDOT": 0}, "tle": {"line1": "1 30609U 99025AMQ 25340.71424812  .00007069  00000+0  36904-2 0  9991", "line2": "2 30609  98.5675 257.6035 0118952  69.9172 291.4756 14.11134801956433"}}, "geometry": {"type": "Point", "coordinates": [24.029293493786877, -79.80305958533634]}}]}